<?xml version="1.0" encoding="UTF-8"?>
<gpx version="1.1" creator="TrailSync Test GPX Generator" xmlns="http://www.topografix.com/GPX/1/1" xmlns:xsi="http://www.w3.org/2001/XMLSchema-instance" xsi:schemaLocation="http://www.topografix.com/GPX/1/1 http://www.topografix.com/GPX/1/1/gpx.xsd">
  <metadata>
    <name>Bilbao Ría - Carrera urbana</name>
    <desc>Ruta urbana de prueba siguiendo la ría de Bilbao.</desc>
    <time>2026-06-18T19:00:00Z</time>
  </metadata>
  <trk>
    <name>Bilbao Ría - Carrera urbana</name>
    <type>Carrera</type>
    <trkseg>
      <trkpt lat="43.263000" lon="-2.935000">
        <ele>15.0</ele>
        <time>2026-06-18T19:00:00Z</time>
      </trkpt>
      <trkpt lat="43.264067" lon="-2.933200">
        <ele>17.9</ele>
        <time>2026-06-18T19:01:12Z</time>
      </trkpt>
      <trkpt lat="43.265133" lon="-2.931400">
        <ele>18.3</ele>
        <time>2026-06-18T19:02:24Z</time>
      </trkpt>
      <trkpt lat="43.266200" lon="-2.929600">
        <ele>16.0</ele>
        <time>2026-06-18T19:03:36Z</time>
      </trkpt>
      <trkpt lat="43.267033" lon="-2.927667">
        <ele>18.9</ele>
        <time>2026-06-18T19:04:45Z</time>
      </trkpt>
      <trkpt lat="43.267867" lon="-2.925733">
        <ele>19.3</ele>
        <time>2026-06-18T19:05:54Z</time>
      </trkpt>
      <trkpt lat="43.268700" lon="-2.923800">
        <ele>17.0</ele>
        <time>2026-06-18T19:07:03Z</time>
      </trkpt>
      <trkpt lat="43.269167" lon="-2.921433">
        <ele>19.9</ele>
        <time>2026-06-18T19:08:19Z</time>
      </trkpt>
      <trkpt lat="43.269633" lon="-2.919067">
        <ele>20.3</ele>
        <time>2026-06-18T19:09:35Z</time>
      </trkpt>
      <trkpt lat="43.270100" lon="-2.916700">
        <ele>18.0</ele>
        <time>2026-06-18T19:10:51Z</time>
      </trkpt>
      <trkpt lat="43.269150" lon="-2.913650">
        <ele>21.0</ele>
        <time>2026-06-18T19:12:34Z</time>
      </trkpt>
      <trkpt lat="43.268200" lon="-2.910600">
        <ele>18.0</ele>
        <time>2026-06-18T19:14:17Z</time>
      </trkpt>
      <trkpt lat="43.266400" lon="-2.912550">
        <ele>20.5</ele>
        <time>2026-06-18T19:15:55Z</time>
      </trkpt>
      <trkpt lat="43.264600" lon="-2.914500">
        <ele>17.0</ele>
        <time>2026-06-18T19:17:33Z</time>
      </trkpt>
      <trkpt lat="43.263950" lon="-2.916725">
        <ele>18.9</ele>
        <time>2026-06-18T19:18:47Z</time>
      </trkpt>
      <trkpt lat="43.263300" lon="-2.918950">
        <ele>19.5</ele>
        <time>2026-06-18T19:20:01Z</time>
      </trkpt>
      <trkpt lat="43.262650" lon="-2.921175">
        <ele>18.4</ele>
        <time>2026-06-18T19:21:15Z</time>
      </trkpt>
      <trkpt lat="43.262000" lon="-2.923400">
        <ele>16.0</ele>
        <time>2026-06-18T19:22:29Z</time>
      </trkpt>
      <trkpt lat="43.262200" lon="-2.925720">
        <ele>17.6</ele>
        <time>2026-06-18T19:23:41Z</time>
      </trkpt>
      <trkpt lat="43.262400" lon="-2.928040">
        <ele>18.5</ele>
        <time>2026-06-18T19:24:53Z</time>
      </trkpt>
      <trkpt lat="43.262600" lon="-2.930360">
        <ele>18.3</ele>
        <time>2026-06-18T19:26:05Z</time>
      </trkpt>
      <trkpt lat="43.262800" lon="-2.932680">
        <ele>17.0</ele>
        <time>2026-06-18T19:27:17Z</time>
      </trkpt>
      <trkpt lat="43.263000" lon="-2.935000">
        <ele>15.0</ele>
        <time>2026-06-18T19:28:29Z</time>
      </trkpt>
    </trkseg>
  </trk>
</gpx>