<?xml version="1.0" encoding="UTF-8"?>
<gpx version="1.1" creator="TrailSync Test GPX Generator" xmlns="http://www.topografix.com/GPX/1/1" xmlns:xsi="http://www.w3.org/2001/XMLSchema-instance" xsi:schemaLocation="http://www.topografix.com/GPX/1/1 http://www.topografix.com/GPX/1/1/gpx.xsd">
  <metadata>
    <name>Málaga centro litoral sin mar</name>
    <desc>Ruta de prueba por tierra en la zona de Málaga centro, La Malagueta y Paseo de Reding. Evita puerto y mar para que el trazado no cruce agua.</desc>
    <time>2026-06-19T09:15:00Z</time>
  </metadata>
  <trk>
    <name>Málaga centro litoral sin mar</name>
    <type>Ciclismo en ruta</type>
    <trkseg>
      <trkpt lat="36.720360" lon="-4.419120">
        <ele>8.0</ele>
        <time>2026-06-19T09:15:00Z</time>
      </trkpt>
      <trkpt lat="36.720525" lon="-4.418440">
        <ele>8.0</ele>
        <time>2026-06-19T09:15:14Z</time>
      </trkpt>
      <trkpt lat="36.720690" lon="-4.417760">
        <ele>8.0</ele>
        <time>2026-06-19T09:15:28Z</time>
      </trkpt>
      <trkpt lat="36.720850" lon="-4.417095">
        <ele>8.0</ele>
        <time>2026-06-19T09:15:41Z</time>
      </trkpt>
      <trkpt lat="36.721010" lon="-4.416430">
        <ele>8.0</ele>
        <time>2026-06-19T09:15:54Z</time>
      </trkpt>
      <trkpt lat="36.721165" lon="-4.415755">
        <ele>8.5</ele>
        <time>2026-06-19T09:16:07Z</time>
      </trkpt>
      <trkpt lat="36.721320" lon="-4.415080">
        <ele>9.0</ele>
        <time>2026-06-19T09:16:20Z</time>
      </trkpt>
      <trkpt lat="36.721485" lon="-4.414420">
        <ele>9.0</ele>
        <time>2026-06-19T09:16:33Z</time>
      </trkpt>
      <trkpt lat="36.721650" lon="-4.413760">
        <ele>9.0</ele>
        <time>2026-06-19T09:16:46Z</time>
      </trkpt>
      <trkpt lat="36.721815" lon="-4.413095">
        <ele>9.5</ele>
        <time>2026-06-19T09:16:59Z</time>
      </trkpt>
      <trkpt lat="36.721980" lon="-4.412430">
        <ele>10.0</ele>
        <time>2026-06-19T09:17:12Z</time>
      </trkpt>
      <trkpt lat="36.722120" lon="-4.411775">
        <ele>10.0</ele>
        <time>2026-06-19T09:17:25Z</time>
      </trkpt>
      <trkpt lat="36.722260" lon="-4.411120">
        <ele>10.0</ele>
        <time>2026-06-19T09:17:38Z</time>
      </trkpt>
      <trkpt lat="36.722410" lon="-4.410450">
        <ele>10.5</ele>
        <time>2026-06-19T09:17:51Z</time>
      </trkpt>
      <trkpt lat="36.722560" lon="-4.409780">
        <ele>11.0</ele>
        <time>2026-06-19T09:18:04Z</time>
      </trkpt>
      <trkpt lat="36.722730" lon="-4.409125">
        <ele>11.5</ele>
        <time>2026-06-19T09:18:17Z</time>
      </trkpt>
      <trkpt lat="36.722900" lon="-4.408470">
        <ele>12.0</ele>
        <time>2026-06-19T09:18:30Z</time>
      </trkpt>
      <trkpt lat="36.723065" lon="-4.407840">
        <ele>12.5</ele>
        <time>2026-06-19T09:18:43Z</time>
      </trkpt>
      <trkpt lat="36.723230" lon="-4.407210">
        <ele>13.0</ele>
        <time>2026-06-19T09:18:56Z</time>
      </trkpt>
      <trkpt lat="36.723385" lon="-4.406570">
        <ele>13.5</ele>
        <time>2026-06-19T09:19:09Z</time>
      </trkpt>
      <trkpt lat="36.723540" lon="-4.405930">
        <ele>14.0</ele>
        <time>2026-06-19T09:19:22Z</time>
      </trkpt>
      <trkpt lat="36.723700" lon="-4.405290">
        <ele>14.5</ele>
        <time>2026-06-19T09:19:35Z</time>
      </trkpt>
      <trkpt lat="36.723860" lon="-4.404650">
        <ele>15.0</ele>
        <time>2026-06-19T09:19:48Z</time>
      </trkpt>
      <trkpt lat="36.724015" lon="-4.404020">
        <ele>15.5</ele>
        <time>2026-06-19T09:20:01Z</time>
      </trkpt>
      <trkpt lat="36.724170" lon="-4.403390">
        <ele>16.0</ele>
        <time>2026-06-19T09:20:14Z</time>
      </trkpt>
      <trkpt lat="36.724315" lon="-4.402740">
        <ele>16.5</ele>
        <time>2026-06-19T09:20:27Z</time>
      </trkpt>
      <trkpt lat="36.724460" lon="-4.402090">
        <ele>17.0</ele>
        <time>2026-06-19T09:20:40Z</time>
      </trkpt>
      <trkpt lat="36.724590" lon="-4.401435">
        <ele>17.5</ele>
        <time>2026-06-19T09:20:53Z</time>
      </trkpt>
      <trkpt lat="36.724720" lon="-4.400780">
        <ele>18.0</ele>
        <time>2026-06-19T09:21:06Z</time>
      </trkpt>
      <trkpt lat="36.724820" lon="-4.400140">
        <ele>18.5</ele>
        <time>2026-06-19T09:21:18Z</time>
      </trkpt>
      <trkpt lat="36.724920" lon="-4.399500">
        <ele>19.0</ele>
        <time>2026-06-19T09:21:30Z</time>
      </trkpt>
      <trkpt lat="36.724970" lon="-4.398900">
        <ele>19.0</ele>
        <time>2026-06-19T09:21:41Z</time>
      </trkpt>
      <trkpt lat="36.725020" lon="-4.398300">
        <ele>19.0</ele>
        <time>2026-06-19T09:21:52Z</time>
      </trkpt>
      <trkpt lat="36.725035" lon="-4.397700">
        <ele>19.5</ele>
        <time>2026-06-19T09:22:03Z</time>
      </trkpt>
      <trkpt lat="36.725050" lon="-4.397100">
        <ele>20.0</ele>
        <time>2026-06-19T09:22:14Z</time>
      </trkpt>
      <trkpt lat="36.725700" lon="-4.397450">
        <ele>24.0</ele>
        <time>2026-06-19T09:22:31Z</time>
      </trkpt>
      <trkpt lat="36.725660" lon="-4.398100">
        <ele>24.0</ele>
        <time>2026-06-19T09:22:43Z</time>
      </trkpt>
      <trkpt lat="36.725620" lon="-4.398750">
        <ele>24.0</ele>
        <time>2026-06-19T09:22:55Z</time>
      </trkpt>
      <trkpt lat="36.725520" lon="-4.399390">
        <ele>23.5</ele>
        <time>2026-06-19T09:23:07Z</time>
      </trkpt>
      <trkpt lat="36.725420" lon="-4.400030">
        <ele>23.0</ele>
        <time>2026-06-19T09:23:19Z</time>
      </trkpt>
      <trkpt lat="36.725280" lon="-4.400665">
        <ele>22.5</ele>
        <time>2026-06-19T09:23:32Z</time>
      </trkpt>
      <trkpt lat="36.725140" lon="-4.401300">
        <ele>22.0</ele>
        <time>2026-06-19T09:23:45Z</time>
      </trkpt>
      <trkpt lat="36.724980" lon="-4.401950">
        <ele>21.5</ele>
        <time>2026-06-19T09:23:58Z</time>
      </trkpt>
      <trkpt lat="36.724820" lon="-4.402600">
        <ele>21.0</ele>
        <time>2026-06-19T09:24:11Z</time>
      </trkpt>
      <trkpt lat="36.724650" lon="-4.403250">
        <ele>20.5</ele>
        <time>2026-06-19T09:24:24Z</time>
      </trkpt>
      <trkpt lat="36.724480" lon="-4.403900">
        <ele>20.0</ele>
        <time>2026-06-19T09:24:37Z</time>
      </trkpt>
      <trkpt lat="36.724300" lon="-4.404560">
        <ele>19.5</ele>
        <time>2026-06-19T09:24:50Z</time>
      </trkpt>
      <trkpt lat="36.724120" lon="-4.405220">
        <ele>19.0</ele>
        <time>2026-06-19T09:25:03Z</time>
      </trkpt>
      <trkpt lat="36.723940" lon="-4.405880">
        <ele>18.0</ele>
        <time>2026-06-19T09:25:16Z</time>
      </trkpt>
      <trkpt lat="36.723760" lon="-4.406540">
        <ele>17.0</ele>
        <time>2026-06-19T09:25:29Z</time>
      </trkpt>
      <trkpt lat="36.723575" lon="-4.407200">
        <ele>16.5</ele>
        <time>2026-06-19T09:25:42Z</time>
      </trkpt>
      <trkpt lat="36.723390" lon="-4.407860">
        <ele>16.0</ele>
        <time>2026-06-19T09:25:55Z</time>
      </trkpt>
      <trkpt lat="36.723205" lon="-4.408515">
        <ele>15.0</ele>
        <time>2026-06-19T09:26:08Z</time>
      </trkpt>
      <trkpt lat="36.723020" lon="-4.409170">
        <ele>14.0</ele>
        <time>2026-06-19T09:26:21Z</time>
      </trkpt>
      <trkpt lat="36.722835" lon="-4.409825">
        <ele>13.5</ele>
        <time>2026-06-19T09:26:34Z</time>
      </trkpt>
      <trkpt lat="36.722650" lon="-4.410480">
        <ele>13.0</ele>
        <time>2026-06-19T09:26:47Z</time>
      </trkpt>
      <trkpt lat="36.722460" lon="-4.411150">
        <ele>12.5</ele>
        <time>2026-06-19T09:27:01Z</time>
      </trkpt>
      <trkpt lat="36.722270" lon="-4.411820">
        <ele>12.0</ele>
        <time>2026-06-19T09:27:15Z</time>
      </trkpt>
      <trkpt lat="36.722085" lon="-4.412490">
        <ele>11.5</ele>
        <time>2026-06-19T09:27:29Z</time>
      </trkpt>
      <trkpt lat="36.721900" lon="-4.413160">
        <ele>11.0</ele>
        <time>2026-06-19T09:27:43Z</time>
      </trkpt>
      <trkpt lat="36.721720" lon="-4.413830">
        <ele>10.5</ele>
        <time>2026-06-19T09:27:56Z</time>
      </trkpt>
      <trkpt lat="36.721540" lon="-4.414500">
        <ele>10.0</ele>
        <time>2026-06-19T09:28:09Z</time>
      </trkpt>
      <trkpt lat="36.721350" lon="-4.415175">
        <ele>9.5</ele>
        <time>2026-06-19T09:28:23Z</time>
      </trkpt>
      <trkpt lat="36.721160" lon="-4.415850">
        <ele>9.0</ele>
        <time>2026-06-19T09:28:37Z</time>
      </trkpt>
      <trkpt lat="36.720960" lon="-4.416530">
        <ele>8.5</ele>
        <time>2026-06-19T09:28:51Z</time>
      </trkpt>
      <trkpt lat="36.720760" lon="-4.417210">
        <ele>8.0</ele>
        <time>2026-06-19T09:29:05Z</time>
      </trkpt>
      <trkpt lat="36.720627" lon="-4.417847">
        <ele>8.0</ele>
        <time>2026-06-19T09:29:18Z</time>
      </trkpt>
      <trkpt lat="36.720493" lon="-4.418483">
        <ele>8.0</ele>
        <time>2026-06-19T09:29:31Z</time>
      </trkpt>
      <trkpt lat="36.720360" lon="-4.419120">
        <ele>8.0</ele>
        <time>2026-06-19T09:29:44Z</time>
      </trkpt>
    </trkseg>
  </trk>
</gpx>