<?xml version="1.0" encoding="UTF-8"?>
<gpx version="1.1" creator="TrailSync Test GPX Generator" xmlns="http://www.topografix.com/GPX/1/1" xmlns:xsi="http://www.w3.org/2001/XMLSchema-instance" xsi:schemaLocation="http://www.topografix.com/GPX/1/1 http://www.topografix.com/GPX/1/1/gpx.xsd">
  <metadata>
    <name>Valencia Jardín del Turia - Carrera</name>
    <desc>Ruta lineal de prueba por el antiguo cauce del Turia.</desc>
    <time>2026-06-15T18:30:00Z</time>
  </metadata>
  <trk>
    <name>Valencia Jardín del Turia - Carrera</name>
    <type>Carrera</type>
    <trkseg>
      <trkpt lat="39.478000" lon="-0.383500">
        <ele>22.0</ele>
        <time>2026-06-15T18:30:00Z</time>
      </trkpt>
      <trkpt lat="39.476967" lon="-0.381133">
        <ele>23.9</ele>
        <time>2026-06-15T18:31:29Z</time>
      </trkpt>
      <trkpt lat="39.475933" lon="-0.378767">
        <ele>23.3</ele>
        <time>2026-06-15T18:32:58Z</time>
      </trkpt>
      <trkpt lat="39.474900" lon="-0.376400">
        <ele>20.0</ele>
        <time>2026-06-15T18:34:27Z</time>
      </trkpt>
      <trkpt lat="39.474175" lon="-0.374500">
        <ele>21.6</ele>
        <time>2026-06-15T18:35:36Z</time>
      </trkpt>
      <trkpt lat="39.473450" lon="-0.372600">
        <ele>22.0</ele>
        <time>2026-06-15T18:36:45Z</time>
      </trkpt>
      <trkpt lat="39.472725" lon="-0.370700">
        <ele>20.6</ele>
        <time>2026-06-15T18:37:54Z</time>
      </trkpt>
      <trkpt lat="39.472000" lon="-0.368800">
        <ele>18.0</ele>
        <time>2026-06-15T18:39:03Z</time>
      </trkpt>
      <trkpt lat="39.471275" lon="-0.366625">
        <ele>19.9</ele>
        <time>2026-06-15T18:40:21Z</time>
      </trkpt>
      <trkpt lat="39.470550" lon="-0.364450">
        <ele>20.5</ele>
        <time>2026-06-15T18:41:39Z</time>
      </trkpt>
      <trkpt lat="39.469825" lon="-0.362275">
        <ele>19.4</ele>
        <time>2026-06-15T18:42:57Z</time>
      </trkpt>
      <trkpt lat="39.469100" lon="-0.360100">
        <ele>17.0</ele>
        <time>2026-06-15T18:44:15Z</time>
      </trkpt>
      <trkpt lat="39.468325" lon="-0.358025">
        <ele>18.9</ele>
        <time>2026-06-15T18:45:31Z</time>
      </trkpt>
      <trkpt lat="39.467550" lon="-0.355950">
        <ele>19.5</ele>
        <time>2026-06-15T18:46:47Z</time>
      </trkpt>
      <trkpt lat="39.466775" lon="-0.353875">
        <ele>18.4</ele>
        <time>2026-06-15T18:48:03Z</time>
      </trkpt>
      <trkpt lat="39.466000" lon="-0.351800">
        <ele>16.0</ele>
        <time>2026-06-15T18:49:19Z</time>
      </trkpt>
      <trkpt lat="39.465025" lon="-0.350075">
        <ele>17.9</ele>
        <time>2026-06-15T18:50:29Z</time>
      </trkpt>
      <trkpt lat="39.464050" lon="-0.348350">
        <ele>18.5</ele>
        <time>2026-06-15T18:51:39Z</time>
      </trkpt>
      <trkpt lat="39.463075" lon="-0.346625">
        <ele>17.4</ele>
        <time>2026-06-15T18:52:49Z</time>
      </trkpt>
      <trkpt lat="39.462100" lon="-0.344900">
        <ele>15.0</ele>
        <time>2026-06-15T18:53:59Z</time>
      </trkpt>
      <trkpt lat="39.460350" lon="-0.342950">
        <ele>17.5</ele>
        <time>2026-06-15T18:55:37Z</time>
      </trkpt>
      <trkpt lat="39.458600" lon="-0.341000">
        <ele>14.0</ele>
        <time>2026-06-15T18:57:15Z</time>
      </trkpt>
    </trkseg>
  </trk>
</gpx>